{
    "links": {
        "self": "http://www.neowsapp.com/rest/v1/neo/3840857?api_key=iIulBulltgU6a56xZRHN4H3l9WmuAYTsLGpBGhQ2"
    },
    "id": "3840857",
    "neo_reference_id": "3840857",
    "name": "(2019 GA4)",
    "designation": "2019 GA4",
    "nasa_jpl_url": "http://ssd.jpl.nasa.gov/sbdb.cgi?sstr=3840857",
    "absolute_magnitude_h": 24.1,
    "estimated_diameter": {
        "kilometers": {
            "estimated_diameter_min": 0.040230458,
            "estimated_diameter_max": 0.0899580388
        },
        "meters": {
            "estimated_diameter_min": 40.2304579834,
            "estimated_diameter_max": 89.9580388169
        },
        "miles": {
            "estimated_diameter_min": 0.0249980399,
            "estimated_diameter_max": 0.0558973165
        },
        "feet": {
            "estimated_diameter_min": 131.9896957704,
            "estimated_diameter_max": 295.1379320721
        }
    },
    "is_potentially_hazardous_asteroid": false,
    "close_approach_data": [
        {
            "close_approach_date": "1920-10-02",
            "close_approach_date_full": "1920-Oct-02 08:34",
            "epoch_date_close_approach": -1554132360000,
            "relative_velocity": {
                "kilometers_per_second": "22.5601231675",
                "kilometers_per_hour": "81216.443403162",
                "miles_per_hour": "50464.7395134814"
            },
            "miss_distance": {
                "astronomical": "0.2470528966",
                "lunar": "96.1035767774",
                "kilometers": "36958587.108690242",
                "miles": "22965001.1280876596"
            },
            "orbiting_body": "Earth"
        },
        {
            "close_approach_date": "2019-04-30",
            "close_approach_date_full": "2019-Apr-30 07:11",
            "epoch_date_close_approach": 1556608260000,
            "relative_velocity": {
                "kilometers_per_second": "14.7139474941",
                "kilometers_per_hour": "52970.2109787532",
                "miles_per_hour": "32913.629149548"
            },
            "miss_distance": {
                "astronomical": "0.0745594715",
                "lunar": "29.0036344135",
                "kilometers": "11153938.124725705",
                "miles": "6930735.768216529"
            },
            "orbiting_body": "Earth"
        },
        {
            "close_approach_date": "2108-10-15",
            "close_approach_date_full": "2108-Oct-15 09:04",
            "epoch_date_close_approach": 4379735040000,
            "relative_velocity": {
                "kilometers_per_second": "28.8998457414",
                "kilometers_per_hour": "104039.4446689954",
                "miles_per_hour": "64646.0649389099"
            },
            "miss_distance": {
                "astronomical": "0.4550566971",
                "lunar": "177.0170551719",
                "kilometers": "68075512.615395177",
                "miles": "42300162.0546283626"
            },
            "orbiting_body": "Earth"
        }
    ],
    "orbital_data": {
        "orbit_id": "5",
        "orbit_determination_date": "2019-04-26 06:56:39",
        "first_observation_date": "2019-04-03",
        "last_observation_date": "2019-04-26",
        "data_arc_in_days": 23,
        "observations_used": 28,
        "orbit_uncertainty": "8",
        "minimum_orbit_intersection": ".0586585",
        "jupiter_tisserand_invariant": "3.848",
        "epoch_osculation": "2458579.5",
        "eccentricity": ".5659653391070713",
        "semi_major_axis": "1.797106207455379",
        "inclination": "10.6296603300803",
        "ascending_node_longitude": "199.3052854981074",
        "orbital_period": "879.9521228082248",
        "perihelion_distance": ".7800063833414729",
        "perihelion_argument": "87.48910957788175",
        "aphelion_distance": "2.814206031569286",
        "perihelion_time": "2458650.984520020788",
        "mean_anomaly": "330.7547416041722",
        "mean_motion": ".4091131672608713",
        "equinox": "J2000",
        "orbit_class": {
            "orbit_class_type": "APO",
            "orbit_class_description": "Near-Earth asteroid orbits which cross the Earth’s orbit similar to that of 1862 Apollo",
            "orbit_class_range": "a (semi-major axis) > 1.0 AU; q (perihelion) < 1.017 AU"
        }
    },
    "is_sentry_object": false
}